{"fetched_at":"2026-03-29T02:12:04Z","count":15717,"tles":[{"name":"STARLINK-32234","line1":"1 60414U 24141S   26087.59824677  .00000394  00000+0  25421-4 0  9991","line2":"2 60414  53.1614 154.8963 0001230  69.6926 290.4207 15.30191244 92473","category":"Starlink"}]}